{
  "type": "FeatureCollection",
  "features": [
    {
      "type": "Feature",
      "properties": {
        "norad_id": 41330,
        "name": "COSMOS 2514 (751)",
        "group": "gnss",
        "lat": 43.14463565485187,
        "lon": -14.783027100026686,
        "alt_km": 19155.593635463258,
        "timestamp": "2025-12-10T16:57:11.878121+00:00",
        "meta_object_name": "COSMOS 2514 (751)",
        "meta_object_id": "2016-008A",
        "meta_epoch": "2025-12-10T04:09:27.217152",
        "meta_mean_motion": 2.13102572,
        "meta_eccentricity": 0.0012197,
        "meta_inclination": 65.1353,
        "meta_ra_of_asc_node": 319.4918,
        "meta_arg_of_pericenter": 220.0504,
        "meta_mean_anomaly": 139.8574,
        "meta_ephemeris_type": 0,
        "meta_classification_type": "U",
        "meta_norad_cat_id": 41330,
        "meta_element_set_no": 999,
        "meta_rev_at_epoch": 7659,
        "meta_bstar": 0,
        "meta_mean_motion_dot": -5e-07,
        "meta_mean_motion_ddot": 0,
        "tle_line1": "1 41330U 16008A   25344.17323168 -.00000050  00000+0  00000+0 0  9999",
        "tle_line2": "2 41330  65.1353 319.4918 0012197 220.0504 139.8574  2.13102572 76591"
      },
      "geometry": {
        "type": "Point",
        "coordinates": [
          -14.783027100026686,
          43.14463565485187
        ]
      }
    },
    {
      "type": "Feature",
      "properties": {
        "norad_id": 41384,
        "name": "IRNSS-1F",
        "group": "gnss",
        "lat": -4.8529965801009425,
        "lon": 6.5811800897825625,
        "alt_km": 35778.42292583984,
        "timestamp": "2025-12-10T16:57:11.878134+00:00",
        "meta_object_name": "IRNSS-1F",
        "meta_object_id": "2016-015A",
        "meta_epoch": "2025-12-09T20:34:38.146944",
        "meta_mean_motion": 1.00270992,
        "meta_eccentricity": 0.0022506,
        "meta_inclination": 4.8733,
        "meta_ra_of_asc_node": 101.3714,
        "meta_arg_of_pericenter": 180.3109,
        "meta_mean_anomaly": 138.1786,
        "meta_ephemeris_type": 0,
        "meta_classification_type": "U",
        "meta_norad_cat_id": 41384,
        "meta_element_set_no": 999,
        "meta_rev_at_epoch": 3576,
        "meta_bstar": 0,
        "meta_mean_motion_dot": 1.61e-06,
        "meta_mean_motion_ddot": 0,
        "tle_line1": "1 41384U 16015A   25343.85738596  .00000161  00000+0  00000+0 0  9997",
        "tle_line2": "2 41384   4.8733 101.3714 0022506 180.3109 138.1786  1.00270992 35766"
      },
      "geometry": {
        "type": "Point",
        "coordinates": [
          6.5811800897825625,
          -4.8529965801009425
        ]
      }
    },
    {
      "type": "Feature",
      "properties": {
        "norad_id": 41434,
        "name": "BEIDOU-2 IGSO-6 (C13)",
        "group": "gnss",
        "lat": 23.219263477008873,
        "lon": 54.30587927303745,
        "alt_km": 36012.638290898656,
        "timestamp": "2025-12-10T16:57:11.878146+00:00",
        "meta_object_name": "BEIDOU-2 IGSO-6 (C13)",
        "meta_object_id": "2016-021A",
        "meta_epoch": "2025-12-03T15:53:57.382080",
        "meta_mean_motion": 1.00293531,
        "meta_eccentricity": 0.00596341,
        "meta_inclination": 59.9536,
        "meta_ra_of_asc_node": 39.991,
        "meta_arg_of_pericenter": 228.541,
        "meta_mean_anomaly": 135.1173,
        "meta_ephemeris_type": 0,
        "meta_classification_type": "U",
        "meta_norad_cat_id": 41434,
        "meta_element_set_no": 999,
        "meta_rev_at_epoch": 3552,
        "meta_bstar": 0,
        "meta_mean_motion_dot": -1.61e-06,
        "meta_mean_motion_ddot": 0,
        "tle_line1": "1 41434U 16021A   25337.66246970 -.00000161  00000+0  00000+0 0  9993",
        "tle_line2": "2 41434  59.9536  39.9910 0059634 228.5410 135.1173  1.00293531 35525"
      },
      "geometry": {
        "type": "Point",
        "coordinates": [
          54.30587927303745,
          23.219263477008873
        ]
      }
    },
    {
      "type": "Feature",
      "properties": {
        "norad_id": 41469,
        "name": "IRNSS-1G",
        "group": "gnss",
        "lat": 0.10072429307827444,
        "lon": 103.13964632882542,
        "alt_km": 35774.375867006136,
        "timestamp": "2025-12-10T16:57:11.878158+00:00",
        "meta_object_name": "IRNSS-1G",
        "meta_object_id": "2016-027A",
        "meta_epoch": "2025-12-09T19:19:22.858752",
        "meta_mean_motion": 1.00250781,
        "meta_eccentricity": 0.00046331,
        "meta_inclination": 4.7258,
        "meta_ra_of_asc_node": 102.1755,
        "meta_arg_of_pericenter": 335.5211,
        "meta_mean_anomaly": 60.1492,
        "meta_ephemeris_type": 0,
        "meta_classification_type": "U",
        "meta_norad_cat_id": 41469,
        "meta_element_set_no": 999,
        "meta_rev_at_epoch": 3528,
        "meta_bstar": 0,
        "meta_mean_motion_dot": -3.35e-06,
        "meta_mean_motion_ddot": 0,
        "tle_line1": "1 41469U 16027A   25343.80512568 -.00000335  00000+0  00000+0 0  9992",
        "tle_line2": "2 41469   4.7258 102.1755 0004633 335.5211  60.1492  1.00250781 35283"
      },
      "geometry": {
        "type": "Point",
        "coordinates": [
          103.13964632882542,
          0.10072429307827444
        ]
      }
    },
    {
      "type": "Feature",
      "properties": {
        "norad_id": 41549,
        "name": "GSAT0211 (GALILEO 14)",
        "group": "gnss",
        "lat": 42.31168723393252,
        "lon": 7.568849721079892,
        "alt_km": 23221.317959478176,
        "timestamp": "2025-12-10T16:57:11.878170+00:00",
        "meta_object_name": "GSAT0211 (GALILEO 14)",
        "meta_object_id": "2016-030A",
        "meta_epoch": "2025-12-07T13:40:58.264320",
        "meta_mean_motion": 1.70472997,
        "meta_eccentricity": 0.00040128,
        "meta_inclination": 55.154,
        "meta_ra_of_asc_node": 226.9659,
        "meta_arg_of_pericenter": 14.4678,
        "meta_mean_anomaly": 345.6377,
        "meta_ephemeris_type": 0,
        "meta_classification_type": "U",
        "meta_norad_cat_id": 41549,
        "meta_element_set_no": 999,
        "meta_rev_at_epoch": 5940,
        "meta_bstar": 0,
        "meta_mean_motion_dot": 2.3e-07,
        "meta_mean_motion_ddot": 0,
        "tle_line1": "1 41549U 16030A   25341.57011880  .00000023  00000+0  00000+0 0  9991",
        "tle_line2": "2 41549  55.1540 226.9659 0004012  14.4678 345.6377  1.70472997 59400"
      },
      "geometry": {
        "type": "Point",
        "coordinates": [
          7.568849721079892,
          42.31168723393252
        ]
      }
    },
    {
      "type": "Feature",
      "properties": {
        "norad_id": 41550,
        "name": "GSAT0210 (GALILEO 13)",
        "group": "gnss",
        "lat": -26.673248624241324,
        "lon": -153.58246672565267,
        "alt_km": 23225.163011445202,
        "timestamp": "2025-12-10T16:57:11.878181+00:00",
        "meta_object_name": "GSAT0210 (GALILEO 13)",
        "meta_object_id": "2016-030B",
        "meta_epoch": "2025-12-09T00:00:58.854816",
        "meta_mean_motion": 1.70473614,
        "meta_eccentricity": 0.0001366,
        "meta_inclination": 55.1527,
        "meta_ra_of_asc_node": 226.9246,
        "meta_arg_of_pericenter": 244.5421,
        "meta_mean_anomaly": 115.531,
        "meta_ephemeris_type": 0,
        "meta_classification_type": "U",
        "meta_norad_cat_id": 41550,
        "meta_element_set_no": 999,
        "meta_rev_at_epoch": 5942,
        "meta_bstar": 0,
        "meta_mean_motion_dot": 1.3e-07,
        "meta_mean_motion_ddot": 0,
        "tle_line1": "1 41550U 16030B   25343.00068119  .00000013  00000+0  00000+0 0  9999",
        "tle_line2": "2 41550  55.1527 226.9246 0001366 244.5421 115.5310  1.70473614 59420"
      },
      "geometry": {
        "type": "Point",
        "coordinates": [
          -153.58246672565267,
          -26.673248624241324
        ]
      }
    },
    {
      "type": "Feature",
      "properties": {
        "norad_id": 41586,
        "name": "BEIDOU-2 G7 (C03)",
        "group": "gnss",
        "lat": 0.5228712456586666,
        "lon": 84.43043658712247,
        "alt_km": 35769.362156100266,
        "timestamp": "2025-12-10T16:57:11.878192+00:00",
        "meta_object_name": "BEIDOU-2 G7 (C03)",
        "meta_object_id": "2016-037A",
        "meta_epoch": "2025-12-09T22:02:38.709312",
        "meta_mean_motion": 1.00268364,
        "meta_eccentricity": 0.00043475,
        "meta_inclination": 1.7501,
        "meta_ra_of_asc_node": 67.7122,
        "meta_arg_of_pericenter": 1.1282,
        "meta_mean_anomaly": 91.1817,
        "meta_ephemeris_type": 0,
        "meta_classification_type": "U",
        "meta_norad_cat_id": 41586,
        "meta_element_set_no": 999,
        "meta_rev_at_epoch": 499,
        "meta_bstar": 0,
        "meta_mean_motion_dot": -3.5e-06,
        "meta_mean_motion_ddot": 0,
        "tle_line1": "1 41586U 16037A   25343.91850358 -.00000350  00000+0  00000+0 0  9994",
        "tle_line2": "2 41586   1.7501  67.7122 0004347   1.1282  91.1817  1.00268364  4996"
      },
      "geometry": {
        "type": "Point",
        "coordinates": [
          84.43043658712247,
          0.5228712456586666
        ]
      }
    }
  ]
}